[{"OBJECT_NAME":"STARLINK-5180","OBJECT_ID":"2023-010BB","EPOCH":"2026-03-09T21:30:38.039904","MEAN_MOTION":14.98332205,"ECCENTRICITY":0.00028053,"INCLINATION":70.0011,"RA_OF_ASC_NODE":3.9191,"ARG_OF_PERICENTER":271.0284,"MEAN_ANOMALY":89.0554,"EPHEMERIS_TYPE":0,"CLASSIFICATION_TYPE":"U","NORAD_CAT_ID":55318,"ELEMENT_SET_NO":999,"REV_AT_EPOCH":17467,"BSTAR":-2.594842e-6,"MEAN_MOTION_DOT":-1.24e-6,"MEAN_MOTION_DDOT":0},{"OBJECT_NAME":"HYPSO-2","OBJECT_ID":"2024-149BR","EPOCH":"2026-03-09T15:24:17.277696","MEAN_MOTION":14.98259029,"ECCENTRICITY":0.00013898,"INCLINATION":97.6894,"RA_OF_ASC_NODE":146.3679,"ARG_OF_PERICENTER":74.8032,"MEAN_ANOMALY":285.3344,"EPHEMERIS_TYPE":0,"CLASSIFICATION_TYPE":"U","NORAD_CAT_ID":60531,"ELEMENT_SET_NO":999,"REV_AT_EPOCH":8514,"BSTAR":0.00033979817,"MEAN_MOTION_DOT":3.981e-5,"MEAN_MOTION_DDOT":0}]
